From: horizons@ssd.jpl.nasa.gov (Horizons Ephemeris System)
Subject: [Horizons] SMALL BODY #C(500@10)_T(Catalina (C/2018 W1)) (1/1)
Date: February 16, 2021 at 11:01:22 PM PST

Automated mail xmit by MAIL_REQUEST, PID= 23538 Tue Feb 16 23:01:22 2021
++++++++++++++++++++++++++++++++ (part 1 of 1)  +++++++++++++++++++++++++++++++


*******************************************************************************
Ephemeris / MAIL_REQUEST Tue Feb 16 23:01:22 2021 Pasadena, USA  / Horizons
*******************************************************************************
Target body name: Catalina (C/2018 W1)            {source: JPL#10}
Center body name: Sun (10)                        {source: DE431}
Center-site name: BODY CENTER
*******************************************************************************
Start time      : A.D. 2018-Nov-11 00:00:00.0000 TDB
Stop  time      : A.D. 2019-Nov-11 00:00:00.0000 TDB
Step-size       : 10080 minutes
*******************************************************************************
Center geodetic : 0.00000000,0.00000000,0.0000000 {E-lon(deg),Lat(deg),Alt(km)}
Center cylindric: 0.00000000,0.00000000,0.0000000 {E-lon(deg),Dxy(km),Dz(km)}
Center radii    : 696000.0 x 696000.0 x 696000.0 k{Equator, meridian, pole}    
Small perturbers: Yes                             {source: SB431-N16}
Output units    : AU-D
Output type     : GEOMETRIC cartesian states
Output format   : 6 (LT, range, and range-rate)
Reference frame : Ecliptic of J2000.0
*******************************************************************************
Initial IAU76/J2000 heliocentric ecliptic osculating elements (au, days, deg.):
 EPOCH=  2458510.5 ! 2019-Jan-27.0000000 (TDB)    RMSW= n.a.                  
  EC= .937662754552529    QR= 1.360177195447402   TP= 2458615.3529378418      
  OM= 233.5895763829199   W= 251.2480607502961    IN= 83.27888375067246       
 Equivalent ICRF heliocentric equatorial cartesian coordinates (au, au/d):
  X= 1.167143446085398E+00  Y= 1.491531460650084E+00  Z= 5.721545680006686E-01
 VX=-7.101431169718302E-03 VY=-8.952847270164216E-04 VZ=-1.530824374214833E-02
Comet physical (GM= km^3/s^2; RAD= km):                                        
  GM= n.a.                RAD= n.a.                                           
  M1=  14.      M2=  15.8     k1=  10.    k2=  5.      PHCOF=  .030           
*******************************************************************************
           JDTDB,            Calendar Date (TDB),                     LT,                     RG,                     RR,
**************************************************************************************************************************
$$SOE
2458433.500000000, A.D. 2018-Nov-11 00:00:00.0000,  1.577265087606335E-02,  2.730949842235023E+00, -9.928845747881785E-03,
2458440.500000000, A.D. 2018-Nov-18 00:00:00.0000,  1.537108975939881E-02,  2.661421690193884E+00, -9.935197949473824E-03,
2458447.500000000, A.D. 2018-Nov-25 00:00:00.0000,  1.496941811495587E-02,  2.591874400861153E+00, -9.934116975617602E-03,
2458454.500000000, A.D. 2018-Dec-02 00:00:00.0000,  1.456796158570154E-02,  2.522364357568737E+00, -9.924326759148816E-03,
2458461.500000000, A.D. 2018-Dec-09 00:00:00.0000,  1.416710159671257E-02,  2.452957602021443E+00, -9.904338814651940E-03,
2458468.500000000, A.D. 2018-Dec-16 00:00:00.0000,  1.376728457437333E-02,  2.383731430551606E+00, -9.872420080014281E-03,
2458475.500000000, A.D. 2018-Dec-23 00:00:00.0000,  1.336903262142567E-02,  2.314776242446684E+00, -9.826552508927789E-03,
2458482.500000000, A.D. 2018-Dec-30 00:00:00.0000,  1.297295596274374E-02,  2.246197694868361E+00, -9.764386789400371E-03,
2458489.500000000, A.D. 2019-Jan-06 00:00:00.0000,  1.257976732454110E-02,  2.178119192535080E+00, -9.683193016804870E-03,
2458496.500000000, A.D. 2019-Jan-13 00:00:00.0000,  1.219029836857275E-02,  2.110684733215919E+00, -9.579808503592784E-03,
2458503.500000000, A.D. 2019-Jan-20 00:00:00.0000,  1.180551826347080E-02,  2.044062123257687E+00, -9.450584776363102E-03,
2458510.500000000, A.D. 2019-Jan-27 00:00:00.0000,  1.142655434696168E-02,  1.978446555136924E+00, -9.291338055887539E-03,
2458517.500000000, A.D. 2019-Feb-03 00:00:00.0000,  1.105471460694381E-02,  1.914064499937846E+00, -9.097310272741830E-03,
2458524.500000000, A.D. 2019-Feb-10 00:00:00.0000,  1.069151134445787E-02,  1.851177804468631E+00, -8.863151888057124E-03,
2458531.500000000, A.D. 2019-Feb-17 00:00:00.0000,  1.033868482642403E-02,  1.790087786605931E+00, -8.582942582487308E-03,
2458538.500000000, A.D. 2019-Feb-24 00:00:00.0000,  9.998225005514741E-03,  1.731138995974255E+00, -8.250270034393459E-03,
2458545.500000000, A.D. 2019-Mar-03 00:00:00.0000,  9.672388421652399E-03,  1.674722140349580E+00, -7.858395235056386E-03,
2458552.500000000, A.D. 2019-Mar-10 00:00:00.0000,  9.363706043463694E-03,  1.621275443365086E+00, -7.400541507827082E-03,
2458559.500000000, A.D. 2019-Mar-17 00:00:00.0000,  9.074976401997538E-03,  1.571283455651263E+00, -6.870336920885413E-03,
2458566.500000000, A.D. 2019-Mar-24 00:00:00.0000,  8.809237371664653E-03,  1.525272168857067E+00, -6.262431324926965E-03,
2458573.500000000, A.D. 2019-Mar-31 00:00:00.0000,  8.569709340252115E-03,  1.483799175842959E+00, -5.573291945596901E-03,
2458580.500000000, A.D. 2019-Apr-07 00:00:00.0000,  8.359703274508084E-03,  1.447437752730347E+00, -4.802131548598758E-03,
2458587.500000000, A.D. 2019-Apr-14 00:00:00.0000,  8.182490351917130E-03,  1.416754286343207E+00, -3.951856797019296E-03,
2458594.500000000, A.D. 2019-Apr-21 00:00:00.0000,  8.041135832255688E-03,  1.392279509959583E+00, -3.029852866136874E-03,
2458601.500000000, A.D. 2019-Apr-28 00:00:00.0000,  7.938308431059452E-03,  1.374475497350614E+00, -2.048370167465399E-03,
2458608.500000000, A.D. 2019-May-05 00:00:00.0000,  7.876085969015284E-03,  1.363702012015890E+00, -1.024290270733051E-03,
2458615.500000000, A.D. 2019-May-12 00:00:00.0000,  7.855785331736389E-03,  1.360187065631182E+00,  2.184910216063542E-05,
2458622.500000000, A.D. 2019-May-19 00:00:00.0000,  7.877846079471043E-03,  1.364006765694218E+00,  1.067504126830699E-03,
2458629.500000000, A.D. 2019-May-26 00:00:00.0000,  7.941790100892092E-03,  1.375078329794880E+00,  2.090176030919888E-03,
2458636.500000000, A.D. 2019-Jun-02 00:00:00.0000,  8.046265463801253E-03,  1.393167678129294E+00,  3.069452197613652E-03,
2458643.500000000, A.D. 2019-Jun-09 00:00:00.0000,  8.189165573151524E-03,  1.417910065071855E+00,  3.988631413445750E-03,
2458650.500000000, A.D. 2019-Jun-16 00:00:00.0000,  8.367800837857198E-03,  1.448839802361985E+00,  4.835668480578722E-03,
2458657.500000000, A.D. 2019-Jun-23 00:00:00.0000,  8.579093417791629E-03,  1.485423978501525E+00,  5.603378932801025E-03,
2458664.500000000, A.D. 2019-Jun-30 00:00:00.0000,  8.819767192204366E-03,  1.527095350766542E+00,  6.289030403324218E-03,
2458671.500000000, A.D. 2019-Jul-07 00:00:00.0000,  9.086512552294704E-03,  1.573280878156941E+00,  6.893546474719937E-03,
2458678.500000000, A.D. 2019-Jul-14 00:00:00.0000,  9.376115162694596E-03,  1.623424015756131E+00,  7.420556060689709E-03,
2458685.500000000, A.D. 2019-Jul-21 00:00:00.0000,  9.685546335890385E-03,  1.677000362577075E+00,  7.875469213311106E-03,
2458692.500000000, A.D. 2019-Jul-28 00:00:00.0000,  1.001201852160432E-02,  1.733527269250872E+00,  8.264687697988632E-03,
2458699.500000000, A.D. 2019-Aug-04 00:00:00.0000,  1.035301242867832E-02,  1.792568534035352E+00,  8.594993959543743E-03,
2458706.500000000, A.D. 2019-Aug-11 00:00:00.0000,  1.070628308465540E-02,  1.853735451999093E+00,  8.873117447476207E-03,
2458713.500000000, A.D. 2019-Aug-18 00:00:00.0000,  1.106985154256770E-02,  1.916685379096258E+00,  9.105452895226908E-03,
2458720.500000000, A.D. 2019-Aug-25 00:00:00.0000,  1.144198770147663E-02,  1.981118757635347E+00,  9.297896892644384E-03,
2458727.500000000, A.D. 2019-Sep-01 00:00:00.0000,  1.182118839469755E-02,  2.046775322372901E+00,  9.455772594326207E-03,
2458734.500000000, A.D. 2019-Sep-08 00:00:00.0000,  1.220615373163718E-02,  2.113430004229627E+00,  9.583813540778398E-03,
2458741.500000000, A.D. 2019-Sep-15 00:00:00.0000,  1.259576352614342E-02,  2.180888848985697E+00,  9.686181101963700E-03,
2458748.500000000, A.D. 2019-Sep-22 00:00:00.0000,  1.298905488802953E-02,  2.248985137373418E+00,  9.766502970646957E-03,
2458755.500000000, A.D. 2019-Sep-29 00:00:00.0000,  1.338520163054660E-02,  2.317575819591633E+00,  9.827922926105421E-03,
2458762.500000000, A.D. 2019-Oct-06 00:00:00.0000,  1.378349578106037E-02,  2.386538313978640E+00,  9.873154133463629E-03,
2458769.500000000, A.D. 2019-Oct-13 00:00:00.0000,  1.418333123895571E-02,  2.455767677466065E+00,  9.904531533468290E-03,
2458776.500000000, A.D. 2019-Oct-20 00:00:00.0000,  1.458418949066558E-02,  2.525174132212808E+00,  9.924060941515321E-03,
2458783.500000000, A.D. 2019-Oct-27 00:00:00.0000,  1.498562722219898E-02,  2.594680920780740E+00,  9.933463698273861E-03,
2458790.500000000, A.D. 2019-Nov-03 00:00:00.0000,  1.538726563878487E-02,  2.664222456888367E+00,  9.934216432097026E-03,
2458797.500000000, A.D. 2019-Nov-10 00:00:00.0000,  1.578878128964442E-02,  2.733742736769402E+00,  9.927585700326294E-03,
$$EOE
**************************************************************************************************************************
Coordinate system description:

 Ecliptic at the standard reference epoch

   Reference epoch: J2000.0
   X-Y plane: adopted Earth orbital plane at the reference epoch
              Note: obliquity of 84381.448 arcseconds (IAU76) wrt ICRF equator
   X-axis   : ICRF
   Z-axis   : perpendicular to the X-Y plane in the directional (+ or -) sense
              of Earth's north pole at the reference epoch.

 Symbol meaning [1 au= 149597870.700 km, 1 day= 86400.0 s]:

   JDTDB    Julian Day Number, Barycentric Dynamical Time
     LT     One-way down-leg Newtonian light-time (day)
     RG     Range; distance from coordinate center (au)
     RR     Range-rate; radial velocity wrt coord. center (au/day)

Geometric states/elements have no aberrations applied.


Computations by ...
    Solar System Dynamics Group, Horizons On-Line Ephemeris System
    4800 Oak Grove Drive, Jet Propulsion Laboratory
    Pasadena, CA  91109   USA
    Information  : https://ssd.jpl.nasa.gov/
    Documentation: https://ssd.jpl.nasa.gov/?horizons_doc
    Connect      : https://ssd.jpl.nasa.gov/?horizons (browser)
                   telnet ssd.jpl.nasa.gov 6775       (command-line)
                   e-mail command interface available
                   Script and CGI interfaces available
    Author       : Jon.D.Giorgini@jpl.nasa.gov
*******************************************************************************
